COSMOS 2576             
1 59773U 24092A   26068.82603826  .00015211  00000+0  56283-3 0  9991
2 59773  97.4253 186.0053 0005946 159.7731 200.3745 15.27760963101271
STARLINK-33861          
1 63678U 25085Q   26068.27249122  .00028717  00000+0  10496-2 0  9997
2 63678  43.0041  33.4868 0001012 284.1161  75.9579 15.27562016 48798
