[{"OBJECT_NAME":"COSMOS 2576","OBJECT_ID":"2024-092A","EPOCH":"2026-03-09T19:49:29.705664","MEAN_MOTION":15.27760963,"ECCENTRICITY":0.0005946,"INCLINATION":97.4253,"RA_OF_ASC_NODE":186.0053,"ARG_OF_PERICENTER":159.7731,"MEAN_ANOMALY":200.3745,"EPHEMERIS_TYPE":0,"CLASSIFICATION_TYPE":"U","NORAD_CAT_ID":59773,"ELEMENT_SET_NO":999,"REV_AT_EPOCH":10127,"BSTAR":0.00056283,"MEAN_MOTION_DOT":0.00015211,"MEAN_MOTION_DDOT":0},{"OBJECT_NAME":"STARLINK-33861","OBJECT_ID":"2025-085Q","EPOCH":"2026-03-09T06:32:23.241408","MEAN_MOTION":15.27562016,"ECCENTRICITY":0.00010123,"INCLINATION":43.0041,"RA_OF_ASC_NODE":33.4868,"ARG_OF_PERICENTER":284.1161,"MEAN_ANOMALY":75.9579,"EPHEMERIS_TYPE":0,"CLASSIFICATION_TYPE":"U","NORAD_CAT_ID":63678,"ELEMENT_SET_NO":999,"REV_AT_EPOCH":4879,"BSTAR":0.0010495844,"MEAN_MOTION_DOT":0.00028717,"MEAN_MOTION_DDOT":0}]
